[{"OBJECT_NAME":"STARLINK-6308","OBJECT_ID":"2023-065AH","EPOCH":"2026-03-09T22:00:01.999584","MEAN_MOTION":15.14468272,"ECCENTRICITY":0.00015369,"INCLINATION":42.9995,"RA_OF_ASC_NODE":195.9313,"ARG_OF_PERICENTER":265.5334,"MEAN_ANOMALY":352.8543,"EPHEMERIS_TYPE":0,"CLASSIFICATION_TYPE":"U","NORAD_CAT_ID":56534,"ELEMENT_SET_NO":999,"REV_AT_EPOCH":563,"BSTAR":0.0040146365,"MEAN_MOTION_DOT":0.0007575,"MEAN_MOTION_DDOT":0},{"OBJECT_NAME":"LEGION 1","OBJECT_ID":"2024-081A","EPOCH":"2026-03-09T22:23:33.170784","MEAN_MOTION":15.17519519,"ECCENTRICITY":0.00050491,"INCLINATION":97.5067,"RA_OF_ASC_NODE":147.8287,"ARG_OF_PERICENTER":20.2836,"MEAN_ANOMALY":339.8597,"EPHEMERIS_TYPE":0,"CLASSIFICATION_TYPE":"U","NORAD_CAT_ID":59625,"ELEMENT_SET_NO":999,"REV_AT_EPOCH":10249,"BSTAR":0.00027762917,"MEAN_MOTION_DOT":5.502e-5,"MEAN_MOTION_DDOT":0}]
